{
  "links" : {
    "next" : "https://api.nasa.gov/neo/rest/v1/feed?start_date=2010-08-16&end_date=2010-08-16&detailed=true&api_key=t0TVs3DtDT2H8Oy2Zy8m2eVrNsAVKAexjcZXUckd",
    "prev" : "https://api.nasa.gov/neo/rest/v1/feed?start_date=2010-08-14&end_date=2010-08-14&detailed=true&api_key=t0TVs3DtDT2H8Oy2Zy8m2eVrNsAVKAexjcZXUckd",
    "self" : "https://api.nasa.gov/neo/rest/v1/feed?start_date=2010-08-15&end_date=2010-08-15&detailed=true&api_key=t0TVs3DtDT2H8Oy2Zy8m2eVrNsAVKAexjcZXUckd"
  },
  "element_count" : 5,
  "near_earth_objects" : {
    "2010-08-15" : [ {
      "links" : {
        "self" : "https://api.nasa.gov/neo/rest/v1/neo/3507183?api_key=t0TVs3DtDT2H8Oy2Zy8m2eVrNsAVKAexjcZXUckd"
      },
      "neo_reference_id" : "3507183",
      "name" : "(2010 CK1)",
      "nasa_jpl_url" : "http://ssd.jpl.nasa.gov/sbdb.cgi?sstr=3507183",
      "absolute_magnitude_h" : 24.0,
      "estimated_diameter" : {
        "kilometers" : {
          "estimated_diameter_min" : 0.0421264611,
          "estimated_diameter_max" : 0.0941976306
        },
        "meters" : {
          "estimated_diameter_min" : 42.1264610556,
          "estimated_diameter_max" : 94.1976305719
        },
        "miles" : {
          "estimated_diameter_min" : 0.0261761612,
          "estimated_diameter_max" : 0.0585316759
        },
        "feet" : {
          "estimated_diameter_min" : 138.2101784897,
          "estimated_diameter_max" : 309.0473542854
        }
      },
      "is_potentially_hazardous_asteroid" : false,
      "close_approach_data" : [ {
        "close_approach_date" : "2010-08-15",
        "epoch_date_close_approach" : 1281855600000,
        "relative_velocity" : {
          "kilometers_per_second" : "13.4887919009",
          "kilometers_per_hour" : "48559.6508433156",
          "miles_per_hour" : "30173.0786031702"
        },
        "miss_distance" : {
          "astronomical" : "0.3432075472",
          "lunar" : "133.5077362061",
          "kilometers" : "51343116",
          "miles" : "31903134"
        },
        "orbiting_body" : "Earth"
      } ],
      "orbital_data" : {
        "orbit_id" : "11",
        "orbit_determination_date" : "2017-04-06 08:58:29",
        "orbit_uncertainty" : "8",
        "minimum_orbit_intersection" : ".0536338",
        "jupiter_tisserand_invariant" : "5.353",
        "epoch_osculation" : "2455240.5",
        "eccentricity" : ".2153961740834699",
        "semi_major_axis" : "1.146585989693644",
        "inclination" : "27.27671259558836",
        "ascending_node_longitude" : "141.4573425449707",
        "orbital_period" : "448.4441603676858",
        "perihelion_distance" : ".8996157542559244",
        "perihelion_argument" : "77.87373480769479",
        "aphelion_distance" : "1.393556225131364",
        "perihelion_time" : "2455307.060895261983",
        "mean_anomaly" : "306.5665418083108",
        "mean_motion" : ".8027755333123991",
        "equinox" : "J2000"
      }
    }, {
      "links" : {
        "self" : "https://api.nasa.gov/neo/rest/v1/neo/3609839?api_key=t0TVs3DtDT2H8Oy2Zy8m2eVrNsAVKAexjcZXUckd"
      },
      "neo_reference_id" : "3609839",
      "name" : "(2012 TL20)",
      "nasa_jpl_url" : "http://ssd.jpl.nasa.gov/sbdb.cgi?sstr=3609839",
      "absolute_magnitude_h" : 24.5,
      "estimated_diameter" : {
        "kilometers" : {
          "estimated_diameter_min" : 0.0334622374,
          "estimated_diameter_max" : 0.0748238376
        },
        "meters" : {
          "estimated_diameter_min" : 33.4622374455,
          "estimated_diameter_max" : 74.8238376074
        },
        "miles" : {
          "estimated_diameter_min" : 0.0207924639,
          "estimated_diameter_max" : 0.0464933628
        },
        "feet" : {
          "estimated_diameter_min" : 109.7842471007,
          "estimated_diameter_max" : 245.4850393757
        }
      },
      "is_potentially_hazardous_asteroid" : false,
      "close_approach_data" : [ {
        "close_approach_date" : "2010-08-15",
        "epoch_date_close_approach" : 1281855600000,
        "relative_velocity" : {
          "kilometers_per_second" : "11.3865881858",
          "kilometers_per_hour" : "40991.7174687878",
          "miles_per_hour" : "25470.6591127588"
        },
        "miss_distance" : {
          "astronomical" : "0.3549169394",
          "lunar" : "138.0626831055",
          "kilometers" : "53094816",
          "miles" : "32991590"
        },
        "orbiting_body" : "Earth"
      } ],
      "orbital_data" : {
        "orbit_id" : "8",
        "orbit_determination_date" : "2017-04-06 08:48:46",
        "orbit_uncertainty" : "7",
        "minimum_orbit_intersection" : ".104643",
        "jupiter_tisserand_invariant" : "4.266",
        "epoch_osculation" : "2458000.5",
        "eccentricity" : ".3293875719332472",
        "semi_major_axis" : "1.613940935469285",
        "inclination" : "7.723807174341021",
        "ascending_node_longitude" : "26.77682433527518",
        "orbital_period" : "748.9104358938409",
        "perihelion_distance" : "1.082328849491384",
        "perihelion_argument" : "322.2042831294377",
        "aphelion_distance" : "2.145553021447187",
        "perihelion_time" : "2457679.034737747481",
        "mean_anomaly" : "154.5278164975542",
        "mean_motion" : ".4806983355363878",
        "equinox" : "J2000"
      }
    }, {
      "links" : {
        "self" : "https://api.nasa.gov/neo/rest/v1/neo/3131064?api_key=t0TVs3DtDT2H8Oy2Zy8m2eVrNsAVKAexjcZXUckd"
      },
      "neo_reference_id" : "3131064",
      "name" : "(2002 OS4)",
      "nasa_jpl_url" : "http://ssd.jpl.nasa.gov/sbdb.cgi?sstr=3131064",
      "absolute_magnitude_h" : 18.3,
      "estimated_diameter" : {
        "kilometers" : {
          "estimated_diameter_min" : 0.5815070396,
          "estimated_diameter_max" : 1.30028927
        },
        "meters" : {
          "estimated_diameter_min" : 581.5070396458,
          "estimated_diameter_max" : 1300.2892700427
        },
        "miles" : {
          "estimated_diameter_min" : 0.3613316107,
          "estimated_diameter_max" : 0.807962044
        },
        "feet" : {
          "estimated_diameter_min" : 1907.8315559515,
          "estimated_diameter_max" : 4266.0410487267
        }
      },
      "is_potentially_hazardous_asteroid" : false,
      "close_approach_data" : [ {
        "close_approach_date" : "2010-08-15",
        "epoch_date_close_approach" : 1281855600000,
        "relative_velocity" : {
          "kilometers_per_second" : "13.604590789",
          "kilometers_per_hour" : "48976.5268404367",
          "miles_per_hour" : "30432.1091359369"
        },
        "miss_distance" : {
          "astronomical" : "0.4273308015",
          "lunar" : "166.2316741943",
          "kilometers" : "63927776",
          "miles" : "39722880"
        },
        "orbiting_body" : "Earth"
      } ],
      "orbital_data" : {
        "orbit_id" : "93",
        "orbit_determination_date" : "2017-04-06 09:15:01",
        "orbit_uncertainty" : "0",
        "minimum_orbit_intersection" : ".29933",
        "jupiter_tisserand_invariant" : "3.672",
        "epoch_osculation" : "2458000.5",
        "eccentricity" : ".4536534560142245",
        "semi_major_axis" : "1.923948703035512",
        "inclination" : "26.79932092203626",
        "ascending_node_longitude" : "289.4766843406335",
        "orbital_period" : "974.7397111529248",
        "perihelion_distance" : "1.051142724709367",
        "perihelion_argument" : "102.1647913124261",
        "aphelion_distance" : "2.796754681361657",
        "perihelion_time" : "2458423.909034585769",
        "mean_anomaly" : "203.6226094958361",
        "mean_motion" : ".3693293664769141",
        "equinox" : "J2000"
      }
    } ]
  }
}